TELEOS-2                
1 56310U 23057C   26067.64596106  .00000863  00000+0  15043-4 0  9993
2 56310   9.9874 216.2411 0000803 295.2771  64.7359 14.96380118157711
STARLINK-5522           
1 56498U 23064BC  26068.48853119 -.00001021  00000+0 -77808-4 0  9997
2 56498  69.9996 104.9153 0002967 262.7845  97.2977 14.98324957156200
